IRIDIUM 63              
1 25286U 98021B   25268.82949879  .00000967  00000+0  32235-3 0  9991
2 25286  86.3994  39.8811 0001918  87.6972 272.4445 14.36625592438299
IRIDIUM 69              
1 25319U 98026A   25268.94961636  .00001234  00000+0  37741-3 0  9996
2 25319  86.3960  52.8052 0004198  69.9540 290.2111 14.41062418437574
IRIDIUM 71              
1 25320U 98026B   25268.80471820  .00000661  00000+0  19860-3 0  9999
2 25320  86.3971  47.5437 0004127 102.8519 257.3143 14.41235905438080
IRIDIUM 73              
1 25344U 98032C   25268.76271020  .00001218  00000+0  29766-3 0  9992
2 25344  86.4474   4.1037 0002408  76.6148 283.5326 14.51834714445150
IRIDIUM 82              
1 25467U 98051A   25269.17441930  .00056747  00000+0  13992-2 0  9994
2 25467  86.3626  59.8669 0074906 271.8545  87.4130 15.37407650439443
